0 FENGYUN 1C DEB
1 31527U 99025BXS 13281.31150587  .00000185  00000-0  31805-3 0  5246
2 31527 098.8967 304.0176 0456544 318.6646 099.8135 13.20650268314703
0 FENGYUN 1C DEB
1 31527U 99025BXS 13286.31171420  .00000221  00000-0  37014-3 0  5250
2 31527 098.8959 308.2811 0456491 306.4933 112.5574 13.20653189315369
0 FENGYUN 1C DEB
1 31527U 99025BXS 13288.90033920  .00000267  00000-0  43560-3 0  5263
2 31527 098.8950 310.4877 0456475 300.1916 179.8129 13.20654862315700
0 FENGYUN 1C DEB
1 31527U 99025BXS 13294.03223398  .00000277  00000-0  45022-3 0  5271
2 31527 098.8955 314.8624 0456640 287.6969 098.7373 13.20658309316389
